[{"OBJECT_NAME":"EOSSAT-1","OBJECT_ID":"2023-001AW","EPOCH":"2026-03-09T17:40:07.010400","MEAN_MOTION":15.32339828,"ECCENTRICITY":0.00112629,"INCLINATION":97.3357,"RA_OF_ASC_NODE":130.2294,"ARG_OF_PERICENTER":110.3168,"MEAN_ANOMALY":249.9285,"EPHEMERIS_TYPE":0,"CLASSIFICATION_TYPE":"U","NORAD_CAT_ID":55053,"ELEMENT_SET_NO":999,"REV_AT_EPOCH":17668,"BSTAR":0.00024844399,"MEAN_MOTION_DOT":7.695e-5,"MEAN_MOTION_DDOT":0},{"OBJECT_NAME":"STARLINK-32812","OBJECT_ID":"2025-034K","EPOCH":"2026-03-09T19:26:09.721536","MEAN_MOTION":15.30192387,"ECCENTRICITY":0.00010183,"INCLINATION":53.1576,"RA_OF_ASC_NODE":257.6733,"ARG_OF_PERICENTER":82.7818,"MEAN_ANOMALY":277.3298,"EPHEMERIS_TYPE":0,"CLASSIFICATION_TYPE":"U","NORAD_CAT_ID":63038,"ELEMENT_SET_NO":999,"REV_AT_EPOCH":5910,"BSTAR":0.0008729409,"MEAN_MOTION_DOT":0.00025578,"MEAN_MOTION_DDOT":0}]
