EOSSAT-1                
1 55053U 23001AW  26068.73619225  .00007695  00000+0  24844-3 0  9992
2 55053  97.3357 130.2294 0011263 110.3168 249.9285 15.32339828176689
STARLINK-32812          
1 63038U 25034K   26068.80983473  .00025578  00000+0  87294-3 0  9997
2 63038  53.1576 257.6733 0001018  82.7818 277.3298 15.30192387 59108
